[{"OBJECT_NAME":"UWE-3","OBJECT_ID":"2013-066AG","EPOCH":"2026-04-27T03:24:35.985888","MEAN_MOTION":14.96594807,"ECCENTRICITY":0.00506292,"INCLINATION":97.8655,"RA_OF_ASC_NODE":72.9028,"ARG_OF_PERICENTER":128.8388,"MEAN_ANOMALY":231.7369,"EPHEMERIS_TYPE":0,"CLASSIFICATION_TYPE":"U","NORAD_CAT_ID":39446,"ELEMENT_SET_NO":999,"REV_AT_EPOCH":66994,"BSTAR":0.00037226643,"MEAN_MOTION_DOT":4.289e-5,"MEAN_MOTION_DDOT":0},{"OBJECT_NAME":"SMDC ONE 2.4","OBJECT_ID":"2013-072H","EPOCH":"2026-04-27T00:22:09.328800","MEAN_MOTION":15.17199058,"ECCENTRICITY":0.01377839,"INCLINATION":120.4888,"RA_OF_ASC_NODE":154.6856,"ARG_OF_PERICENTER":323.0695,"MEAN_ANOMALY":36.0956,"EPHEMERIS_TYPE":0,"CLASSIFICATION_TYPE":"U","NORAD_CAT_ID":39469,"ELEMENT_SET_NO":999,"REV_AT_EPOCH":11006,"BSTAR":0.00044924389,"MEAN_MOTION_DOT":0.00011131,"MEAN_MOTION_DDOT":0},{"OBJECT_NAME":"CP8 (IPEX)","OBJECT_ID":"2013-072K","EPOCH":"2026-04-26T18:45:29.243808","MEAN_MOTION":15.07410892,"ECCENTRICITY":0.01578969,"INCLINATION":120.4635,"RA_OF_ASC_NODE":103.28,"ARG_OF_PERICENTER":306.5556,"MEAN_ANOMALY":52.1069,"EPHEMERIS_TYPE":0,"CLASSIFICATION_TYPE":"U","NORAD_CAT_ID":39471,"ELEMENT_SET_NO":999,"REV_AT_EPOCH":10748,"BSTAR":0.00054726189,"MEAN_MOTION_DOT":0.00010775,"MEAN_MOTION_DDOT":0},{"OBJECT_NAME":"COSMOS 2488 (RODNIK-S 7)","OBJECT_ID":"2013-076A","EPOCH":"2026-04-27T05:52:34.183776","MEAN_MOTION":12.42903998,"ECCENTRICITY":0.00192881,"INCLINATION":82.487,"RA_OF_ASC_NODE":200.4293,"ARG_OF_PERICENTER":202.9646,"MEAN_ANOMALY":157.0574,"EPHEMERIS_TYPE":0,"CLASSIFICATION_TYPE":"U","NORAD_CAT_ID":39483,"ELEMENT_SET_NO":999,"REV_AT_EPOCH":55956,"BSTAR":0.00048588281,"MEAN_MOTION_DOT":7.7e-7,"MEAN_MOTION_DDOT":0},{"OBJECT_NAME":"COSMOS 2489 (RODNIK-S 8)","OBJECT_ID":"2013-076B","EPOCH":"2026-04-27T07:11:15.070272","MEAN_MOTION":12.42879071,"ECCENTRICITY":0.00211017,"INCLINATION":82.4906,"RA_OF_ASC_NODE":201.7571,"ARG_OF_PERICENTER":203.0705,"MEAN_ANOMALY":156.9429,"EPHEMERIS_TYPE":0,"CLASSIFICATION_TYPE":"U","NORAD_CAT_ID":39484,"ELEMENT_SET_NO":999,"REV_AT_EPOCH":55962,"BSTAR":0.0004548204,"MEAN_MOTION_DOT":7.3e-7,"MEAN_MOTION_DDOT":0},{"OBJECT_NAME":"COSMOS 2490 (RODNIK-S 9)","OBJECT_ID":"2013-076C","EPOCH":"2026-04-27T06:30:38.203200","MEAN_MOTION":12.42876257,"ECCENTRICITY":0.00208999,"INCLINATION":82.4853,"RA_OF_ASC_NODE":199.8645,"ARG_OF_PERICENTER":219.2081,"MEAN_ANOMALY":140.7486,"EPHEMERIS_TYPE":0,"CLASSIFICATION_TYPE":"U","NORAD_CAT_ID":39485,"ELEMENT_SET_NO":999,"REV_AT_EPOCH":55955,"BSTAR":0.0004131157,"MEAN_MOTION_DOT":6.7e-7,"MEAN_MOTION_DDOT":0},{"OBJECT_NAME":"AIST-1 (RS41)","OBJECT_ID":"2013-078C","EPOCH":"2026-04-27T06:13:19.786656","MEAN_MOTION":14.95928042,"ECCENTRICITY":0.00183306,"INCLINATION":82.4153,"RA_OF_ASC_NODE":320.2158,"ARG_OF_PERICENTER":87.9801,"MEAN_ANOMALY":272.3519,"EPHEMERIS_TYPE":0,"CLASSIFICATION_TYPE":"U","NORAD_CAT_ID":39492,"ELEMENT_SET_NO":999,"REV_AT_EPOCH":66763,"BSTAR":0.00019906465,"MEAN_MOTION_DOT":2.261e-5,"MEAN_MOTION_DDOT":0},{"OBJECT_NAME":"KAZEOSAT 1","OBJECT_ID":"2014-024A","EPOCH":"2026-04-27T07:13:39.873216","MEAN_MOTION":14.42059167,"ECCENTRICITY":0.00014511,"INCLINATION":98.3219,"RA_OF_ASC_NODE":191.0094,"ARG_OF_PERICENTER":98.6944,"MEAN_ANOMALY":261.441,"EPHEMERIS_TYPE":0,"CLASSIFICATION_TYPE":"U","NORAD_CAT_ID":39731,"ELEMENT_SET_NO":999,"REV_AT_EPOCH":63122,"BSTAR":0.00010264533,"MEAN_MOTION_DOT":2.94e-6,"MEAN_MOTION_DDOT":0},{"OBJECT_NAME":"COSMOS 2496 (RODNIK-S 10)","OBJECT_ID":"2014-028A","EPOCH":"2026-04-27T07:25:29.594784","MEAN_MOTION":12.42876036,"ECCENTRICITY":0.00198178,"INCLINATION":82.4438,"RA_OF_ASC_NODE":140.6014,"ARG_OF_PERICENTER":186.2554,"MEAN_ANOMALY":173.8281,"EPHEMERIS_TYPE":0,"CLASSIFICATION_TYPE":"U","NORAD_CAT_ID":39761,"ELEMENT_SET_NO":999,"REV_AT_EPOCH":54119,"BSTAR":-5.2770375e-5,"MEAN_MOTION_DOT":3.0e-8,"MEAN_MOTION_DDOT":0},{"OBJECT_NAME":"COSMOS 2497 (RODNIK-S 11)","OBJECT_ID":"2014-028B","EPOCH":"2026-04-27T06:50:49.409376","MEAN_MOTION":12.42891642,"ECCENTRICITY":0.0020482,"INCLINATION":82.4487,"RA_OF_ASC_NODE":142.2866,"ARG_OF_PERICENTER":181.3217,"MEAN_ANOMALY":178.7811,"EPHEMERIS_TYPE":0,"CLASSIFICATION_TYPE":"U","NORAD_CAT_ID":39762,"ELEMENT_SET_NO":999,"REV_AT_EPOCH":54119,"BSTAR":-0.00057957265,"MEAN_MOTION_DOT":-7.0e-7,"MEAN_MOTION_DDOT":0},{"OBJECT_NAME":"COSMOS 2498 (RODNIK-S 12)","OBJECT_ID":"2014-028C","EPOCH":"2026-04-27T08:19:33.778272","MEAN_MOTION":12.42978526,"ECCENTRICITY":0.00212109,"INCLINATION":82.4446,"RA_OF_ASC_NODE":140.7571,"ARG_OF_PERICENTER":181.0037,"MEAN_ANOMALY":179.1003,"EPHEMERIS_TYPE":0,"CLASSIFICATION_TYPE":"U","NORAD_CAT_ID":39763,"ELEMENT_SET_NO":999,"REV_AT_EPOCH":54123,"BSTAR":-0.00023614456,"MEAN_MOTION_DOT":-2.3e-7,"MEAN_MOTION_DDOT":0},{"OBJECT_NAME":"COSMOS 2499 (RS47)","OBJECT_ID":"2014-028E","EPOCH":"2026-04-27T06:36:23.423040","MEAN_MOTION":12.8290237,"ECCENTRICITY":0.02325058,"INCLINATION":82.4461,"RA_OF_ASC_NODE":286.7874,"ARG_OF_PERICENTER":121.0707,"MEAN_ANOMALY":241.3443,"EPHEMERIS_TYPE":0,"CLASSIFICATION_TYPE":"U","NORAD_CAT_ID":39765,"ELEMENT_SET_NO":999,"REV_AT_EPOCH":55849,"BSTAR":8.0266437e-5,"MEAN_MOTION_DOT":3.5e-7,"MEAN_MOTION_DDOT":0},{"OBJECT_NAME":"HODOYOSHI-4","OBJECT_ID":"2014-033B","EPOCH":"2026-04-27T06:22:38.788608","MEAN_MOTION":14.88000504,"ECCENTRICITY":0.00250501,"INCLINATION":97.5462,"RA_OF_ASC_NODE":304.5498,"ARG_OF_PERICENTER":113.1093,"MEAN_ANOMALY":247.2768,"EPHEMERIS_TYPE":0,"CLASSIFICATION_TYPE":"U","NORAD_CAT_ID":40011,"ELEMENT_SET_NO":999,"REV_AT_EPOCH":64123,"BSTAR":0.00017738966,"MEAN_MOTION_DOT":1.585e-5,"MEAN_MOTION_DDOT":0},{"OBJECT_NAME":"UNISAT-6","OBJECT_ID":"2014-033C","EPOCH":"2026-04-27T07:09:50.120928","MEAN_MOTION":14.87938938,"ECCENTRICITY":0.00441919,"INCLINATION":97.7813,"RA_OF_ASC_NODE":270.9352,"ARG_OF_PERICENTER":235.0838,"MEAN_ANOMALY":124.6223,"EPHEMERIS_TYPE":0,"CLASSIFICATION_TYPE":"U","NORAD_CAT_ID":40012,"ELEMENT_SET_NO":999,"REV_AT_EPOCH":63859,"BSTAR":0.00044655915,"MEAN_MOTION_DOT":4.11e-5,"MEAN_MOTION_DDOT":0},{"OBJECT_NAME":"DEIMOS-2","OBJECT_ID":"2014-033D","EPOCH":"2026-04-27T06:28:05.467008","MEAN_MOTION":14.93578916,"ECCENTRICITY":0.00022371,"INCLINATION":97.5899,"RA_OF_ASC_NODE":353.5327,"ARG_OF_PERICENTER":101.9435,"MEAN_ANOMALY":258.2037,"EPHEMERIS_TYPE":0,"CLASSIFICATION_TYPE":"U","NORAD_CAT_ID":40013,"ELEMENT_SET_NO":999,"REV_AT_EPOCH":63012,"BSTAR":0.0001857195,"MEAN_MOTION_DOT":1.904e-5,"MEAN_MOTION_DDOT":0},{"OBJECT_NAME":"BUGSAT-1 (TITA)","OBJECT_ID":"2014-033E","EPOCH":"2026-04-27T06:08:16.177056","MEAN_MOTION":15.15069256,"ECCENTRICITY":0.00280211,"INCLINATION":98.0403,"RA_OF_ASC_NODE":206.8528,"ARG_OF_PERICENTER":357.4575,"MEAN_ANOMALY":2.6508,"EPHEMERIS_TYPE":0,"CLASSIFICATION_TYPE":"U","NORAD_CAT_ID":40014,"ELEMENT_SET_NO":999,"REV_AT_EPOCH":64812,"BSTAR":0.00039433596,"MEAN_MOTION_DOT":7.376e-5,"MEAN_MOTION_DDOT":0},{"OBJECT_NAME":"SAUDISAT 4","OBJECT_ID":"2014-033G","EPOCH":"2026-04-27T07:51:30.802176","MEAN_MOTION":14.79467429,"ECCENTRICITY":0.00436425,"INCLINATION":97.7511,"RA_OF_ASC_NODE":265.243,"ARG_OF_PERICENTER":237.9051,"MEAN_ANOMALY":121.7921,"EPHEMERIS_TYPE":0,"CLASSIFICATION_TYPE":"U","NORAD_CAT_ID":40016,"ELEMENT_SET_NO":999,"REV_AT_EPOCH":63855,"BSTAR":0.0001163151,"MEAN_MOTION_DOT":8.3e-6,"MEAN_MOTION_DDOT":0},{"OBJECT_NAME":"APRIZESAT 9","OBJECT_ID":"2014-033J","EPOCH":"2026-04-27T07:13:41.711808","MEAN_MOTION":14.74156243,"ECCENTRICITY":0.00662504,"INCLINATION":97.8981,"RA_OF_ASC_NODE":251.7661,"ARG_OF_PERICENTER":5.1498,"MEAN_ANOMALY":355.0378,"EPHEMERIS_TYPE":0,"CLASSIFICATION_TYPE":"U","NORAD_CAT_ID":40018,"ELEMENT_SET_NO":999,"REV_AT_EPOCH":63606,"BSTAR":9.324082e-5,"MEAN_MOTION_DOT":5.84e-6,"MEAN_MOTION_DDOT":0},{"OBJECT_NAME":"BRITE-CA1 (TORONTO)","OBJECT_ID":"2014-033L","EPOCH":"2026-04-27T06:46:25.179168","MEAN_MOTION":14.72600195,"ECCENTRICITY":0.00800475,"INCLINATION":97.9659,"RA_OF_ASC_NODE":247.1737,"ARG_OF_PERICENTER":80.1674,"MEAN_ANOMALY":280.856,"EPHEMERIS_TYPE":0,"CLASSIFICATION_TYPE":"U","NORAD_CAT_ID":40020,"ELEMENT_SET_NO":999,"REV_AT_EPOCH":63472,"BSTAR":0.00017416559,"MEAN_MOTION_DOT":1.113e-5,"MEAN_MOTION_DDOT":0},{"OBJECT_NAME":"DUCHIFAT-1","OBJECT_ID":"2014-033M","EPOCH":"2026-04-27T02:08:00.662784","MEAN_MOTION":15.56089814,"ECCENTRICITY":0.00042947,"INCLINATION":98.0538,"RA_OF_ASC_NODE":169.4491,"ARG_OF_PERICENTER":231.1866,"MEAN_ANOMALY":128.9004,"EPHEMERIS_TYPE":0,"CLASSIFICATION_TYPE":"U","NORAD_CAT_ID":40021,"ELEMENT_SET_NO":999,"REV_AT_EPOCH":64778,"BSTAR":0.0010062486,"MEAN_MOTION_DOT":0.00070643,"MEAN_MOTION_DDOT":0},{"OBJECT_NAME":"NANOSATC-BR1","OBJECT_ID":"2014-033Q","EPOCH":"2026-04-27T00:24:35.610912","MEAN_MOTION":15.29820947,"ECCENTRICITY":0.00036217,"INCLINATION":98.0774,"RA_OF_ASC_NODE":144.9289,"ARG_OF_PERICENTER":33.2067,"MEAN_ANOMALY":326.9398,"EPHEMERIS_TYPE":0,"CLASSIFICATION_TYPE":"U","NORAD_CAT_ID":40024,"ELEMENT_SET_NO":999,"REV_AT_EPOCH":64615,"BSTAR":0.000641184,"MEAN_MOTION_DOT":0.00018461,"MEAN_MOTION_DDOT":0},{"OBJECT_NAME":"QB50P1","OBJECT_ID":"2014-033R","EPOCH":"2026-04-26T23:49:50.179296","MEAN_MOTION":15.17436151,"ECCENTRICITY":0.00101004,"INCLINATION":98.0988,"RA_OF_ASC_NODE":124.5794,"ARG_OF_PERICENTER":50.0262,"MEAN_ANOMALY":310.1856,"EPHEMERIS_TYPE":0,"CLASSIFICATION_TYPE":"U","NORAD_CAT_ID":40025,"ELEMENT_SET_NO":999,"REV_AT_EPOCH":64526,"BSTAR":0.00047163786,"MEAN_MOTION_DOT":9.377e-5,"MEAN_MOTION_DDOT":0},{"OBJECT_NAME":"DTUSAT-2","OBJECT_ID":"2014-033W","EPOCH":"2026-04-27T05:42:31.726080","MEAN_MOTION":15.14328162,"ECCENTRICITY":0.00094851,"INCLINATION":98.0866,"RA_OF_ASC_NODE":111.7608,"ARG_OF_PERICENTER":57.4291,"MEAN_ANOMALY":302.7853,"EPHEMERIS_TYPE":0,"CLASSIFICATION_TYPE":"U","NORAD_CAT_ID":40030,"ELEMENT_SET_NO":999,"REV_AT_EPOCH":64497,"BSTAR":0.0005131783,"MEAN_MOTION_DOT":9.344e-5,"MEAN_MOTION_DDOT":0}]
